FLOCK 1C-3              
1 40041U 14033AH  17359.72042501  .00001234  00000-0  13715-3 0  9996
2 40041  97.9230 272.2686 0013944  26.4428 333.7524 14.88968929190989
POLYITAN-1              
1 40042U 14033AJ  17359.21168444  .00000512  00000-0  61461-4 0  9996
2 40042  97.9162 269.9858 0015568  30.3698 329.8417 14.88263516190836
TIGRISAT                
1 40043U 14033AK  17359.19773206  .00000216  00000-0  39508-4 0  9990
2 40043  97.8316 237.5985 0061104  40.3706 320.2014 14.74076167188976
LEMUR-1                 
1 40044U 14033AL  17359.47311339  .00000239  00000-0  42958-4 0  9995
2 40044  97.8312 237.5521 0060256  40.7784 319.7911 14.73903760189007
AEROCUBE 6A             
1 40045U 14033AM  17359.24717674  .00000554  00000-0  87587-4 0  9990
2 40045  97.8458 239.3536 0059136  34.9809 325.5263 14.75020973188881
AEROCUBE 6B             
1 40046U 14033AN  17359.45080645  .00000509  00000-0  81179-4 0  9996
2 40046  97.8441 239.4591 0058212  33.9629 326.5285 14.75012250189053
UKUBE-1                 
1 40074U 14037F   17359.70178119  .00000376  00000-0  52596-4 0  9996
2 40074  98.3657 123.4764 0005417 140.8790 219.2814 14.83684900187576
BRITE-PL 2              
1 40119U 14049B   17359.81764560  .00000213  00000-0  31867-4 0  9990
2 40119  97.9281  84.6323 0017555 179.6225 180.5005 14.84233290181582
FIREBIRD 4              
1 40378U 15003C   17359.81974511  .00002484  00000-0  10560-3 0  9995
2 40378  99.1070 222.1222 0134373  86.7514 274.9076 15.16520836160048
GRIFEX                  
1 40379U 15003D   17359.79834275  .00001648  00000-0  76137-4 0  9999
2 40379  99.1108 219.0499 0140859  96.8684 264.8590 15.13812012159862
EXOCUBE                 
1 40380U 15003E   17359.51935943  .00001102  00000-0  54510-4 0  9991
2 40380  99.1157 217.0301 0144967 103.3185 258.4252 15.12127358159700
DEORBITSAIL             
1 40719U 15032E   17359.20571678  .00000523  00000-0  82712-4 0  9997
2 40719  97.9620 250.3685 0015202 247.7440 112.2158 14.76285423132506
TIANWANG 1C (TW-1C)     
1 40926U 15051B   17359.79523844  .00007607  00000-0  15578-3 0  9999
2 40926  97.2060  38.0590 0010064 182.5109 267.0885 15.46323852126496
TIANWANG 1B (TW-1B)     
1 40927U 15051C   17359.81132235  .00007699  00000-0  16402-3 0  9991
2 40927  97.2154  38.0009 0009944 193.2149 255.7100 15.45158742126424
TIANWANG 1A (TW-1A)     
1 40928U 15051D   17359.83177958  .00002942  00000-0  81641-4 0  9999
2 40928  97.2067  32.1584 0010699 221.9028 194.3435 15.37658334126135
LEMUR-2-JOEL            
1 40932U 15052C   17359.31550686  .00000902  00000-0  34832-4 0  9995
2 40932   6.0066 303.0306 0014449  84.8026 275.5929 14.77603315121328
LEMUR-2-CHRIS           
1 40933U 15052D   17359.02911170  .00000201  00000-0 -60622-4 0  9992
2 40933   6.0031 303.6748 0014491  86.2846 274.0554 14.77754746121299
LEMUR-2-JEROEN          
1 40934U 15052E   17359.75951746  .00000598  00000-0 -58707-5 0  9997
2 40934   6.0035 305.2862 0011255  80.0912 279.5888 14.77096198121302
LEMUR-2-PETER           
1 40935U 15052F   17359.33667004  .00000292  00000-0 -48114-4 0  9994
2 40935   6.0024 309.8712 0009778  96.5395 263.5682 14.76873390121243
EXACTVIEW 9             
1 40936U 15052G   17358.39025114  .00000783  00000-0  20658-4 0  9997
2 40936   6.0020 320.0283 0010741  42.6359 317.4723 14.76334505121090
ATHENOXAT 1             
1 41168U 15077C   17359.85835863  .00002274  00000-0  89184-4 0  9990
2 41168  14.9857 208.4714 0012013 154.8477 313.3222 15.12327453112097
GALASSIA                
1 41170U 15077E   17359.04047300  .00002193  00000-0  83406-4 0  9996
2 41170  14.9875 209.8062 0013214 163.0956 196.9806 15.12746611112015
VELOX 2                 
1 41171U 15077F   17358.77843483  .00001705  00000-0  61638-4 0  9993
2 41171  14.9904 228.6713 0009004 107.4454 252.6851 15.10360068111822
AGGIESAT 4              
1 41313U 98067HP  17359.48715052  .00097395  14774-4  28461-3 0  9993
2 41313  51.6341  90.2444 0000877 281.6120  78.4788 15.92756036109195
HORYU-IV                
1 41340U 16012D   17358.28193877  .00000595  00000-0  38944-4 0  9992
2 41340  31.0065 339.7981 0014202 158.9509 201.1713 15.00842247101599
OUFTI-1                 
1 41458U 16025C   17359.83674876  .00000787  00000-0  45656-4 0  9992
2 41458  98.1598  48.2642 0171908   9.1289 351.2993 15.04080517 91378
E-ST@R-II               
1 41459U 16025D   17359.81525365  .00001880  00000-0  10297-3 0  9996
2 41459  98.1620  48.1431 0172293   9.6944 350.7520 15.03864200 91368
AAUSAT 4                
1 41460U 16025E   17359.81329825  .00002517  00000-0  13537-3 0  9999
2 41460  98.1559  48.4033 0164158   6.9338 353.4088 15.05081961 91401
DIWATA-1                
1 41463U 98067HT  17359.82959333  .00010008  00000-0  98815-4 0  9999
2 41463  51.6393 135.4238 0001472 145.8332  10.5607 15.66607450 94791
FLOCK 2E'-1             
1 41479U 98067HZ  17359.55282290  .00068965  00000-0  31350-3 0  9992
2 41479  51.6316 112.5499 0001675 256.3124 103.7693 15.83212380 92016
FLOCK 2E'-3             
1 41480U 98067JA  17358.82550877  .00057421  00000-0  28006-3 0  9991
2 41480  51.6253 116.6716 0001564 247.8977 112.1859 15.81777984 91889
FLOCK 2E'-2             
1 41481U 98067JB  17334.77617065  .16809613  12434-4  52553-3 0  9990
2 41481  51.6166 233.3710 0007521 225.1371 134.8092 16.44458340 88170
FLOCK 2E-1              
1 41483U 98067JD  17359.52863046  .00038832  00000-0  22751-3 0  9993
2 41483  51.6340 117.0260 0000677 239.4994 120.5939 15.77913939 91809
FLOCK 2E-2              
1 41484U 98067JE  17359.69220901  .00233446  31748-4  66417-3 0  9991
2 41484  51.6284 109.0236 0004532 339.1990  20.8832 15.92860304 91920
FLOCK 2E-3              
1 41486U 98067JG  17359.50192440  .00055555  00000-0  29331-3 0  9999
2 41486  51.6295 117.5421 0000568 271.6159  88.4778 15.80066689 91814
FLOCK 2E-4              
1 41487U 98067JH  17359.85973531  .00124292  00000-0  61116-3 0  9998
2 41487  51.6294 114.6716 0001763   6.5208 353.5817 15.81292433 91883
FLOCK 2E-6              
1 41563U 98067JM  17358.79897913  .00147828  00000-0  57176-3 0  9995
2 41563  51.6300 122.5744 0004279 278.0554  81.9965 15.86271226 89751
FLOCK 2E-5              
1 41564U 98067JN  17359.52703197  .00030814  00000-0  20852-3 0  9995
2 41564  51.6316 122.2506 0002003 216.3118 143.7746 15.74744630 89818
FLOCK 2E-7              
1 41565U 98067JP  17359.50254167  .00060361  00000-0  27866-3 0  9994
2 41565  51.6263 111.4102 0002308 180.3033 179.7969 15.82935064 89858
FLOCK 2E'-5             
1 41567U 98067JR  17358.94950285  .00027570  00000-0  19886-3 0  9995
2 41567  51.6330 128.1950 0003827 155.6468 204.4712 15.73314570 89557
FLOCK 2E'-6             
1 41568U 98067JS  17359.86993540  .00046557  00000-0  27230-3 0  9997
2 41568  51.6284 116.9636 0002818 176.9505 183.1513 15.77866245 89815
FLOCK 2E'-8             
1 41569U 98067JT  17359.66545600  .00069825  00000-0  30600-3 0  9994
2 41569  51.6298 109.5242 0000622 232.8811 127.2135 15.83983357 89770
FLOCK 2E-9              
1 41571U 98067JV  17358.79358663  .07570510  12393-4  99252-3 0  9996
2 41571  51.6107 107.3098 0009920 356.3054   4.2290 16.34648771 89702
FLOCK 2E-10             
1 41572U 98067JW  17359.79098669  .00060938  00000-0  29418-3 0  9991
2 41572  51.6325 111.9387 0002036 183.2847 176.8143 15.81974504 89738
FLOCK 2E-12             
1 41573U 98067JX  17359.80112698  .00075537  00000-0  31874-3 0  9993
2 41573  51.6292 108.9302 0002127 202.0858 158.0054 15.84745874 89774
FLOCK 2E-11             
1 41574U 98067JY  17358.79295620  .00064510  00000-0  28270-3 0  9993
2 41574  51.6233 113.3347 0002909 198.5623 161.5275 15.84010937 89629
FLOCK 2E'-9             
1 41575U 98067JZ  17359.54243759  .00101577  00000-0  34555-3 0  9992
2 41575  51.6267 105.5437 0003238 239.0454 121.0233 15.89029801 89786
FLOCK 2E'-10            
1 41576U 98067KA  17359.13914907  .00083455  00000-0  32064-3 0  9995
2 41576  51.6295 111.2833 0003281 217.2988 142.7789 15.86644169 89570
FLOCK 2E'-11            
1 41577U 98067KB  17359.50001906  .00060418  00000-0  28183-3 0  9994
2 41577  51.6321 112.2619 0002413 180.3462 179.7540 15.82713059 89416
FLOCK 2E'-12            
1 41578U 98067KC  17359.50465817  .00119087  00000-0  37843-3 0  9990
2 41578  51.6229 106.7922 0002037 233.4794 126.6024 15.90321562 89487
FLOCK 2P-6              
1 41606U 16040H   17358.91918140  .00003917  00000-0  16591-3 0  9990
2 41606  97.4370  60.0466 0011988 122.5749 237.6648 15.23690585 83739
FLOCK 2P-11             
1 41608U 16040K   17359.77924837  .00004437  00000-0  18800-3 0  9990
2 41608  97.4365  60.8565 0012057 119.8897 240.3540 15.23603520 83807
FLOCK 2P-2              
1 41609U 16040L   17359.13656140  .00002890  00000-0  12301-3 0  9991
2 41609  97.4369  60.2215 0011899 121.4381 238.8021 15.23739892 83682
FLOCK 2P-9              
1 41610U 16040M   17358.88594518  .00003838  00000-0  16243-3 0  9996
2 41610  97.4368  59.9251 0012160 122.4888 237.7527 15.23733542 83521
FLOCK 2P-4              
1 41611U 16040N   17359.44043043  .00005765  00000-0  24280-3 0  9993
2 41611  97.4393  60.7397 0012124 128.9131 231.3189 15.23681709 83771
FLOCK 2P-10             
1 41612U 16040P   17358.82592499  .00004231  00000-0  17883-3 0  9997
2 41612  97.4399  60.2194 0011908 130.5965 229.6310 15.23718759 83683
FLOCK 2P-8              
1 41613U 16040Q   17358.90928919  .00003892  00000-0  16501-3 0  9995
2 41613  97.4394  60.2323 0012093 129.7231 230.5074 15.23664272 83694
FLOCK 2P-12             
1 41614U 16040R   17359.46073813  .00003244  00000-0  13791-3 0  9991
2 41614  97.4405  60.9422 0011831 128.2368 231.9936 15.23699839 83788
FLOCK 2P-7              
1 41615U 16040S   17359.16549262  .00001096  00000-0  48730-4 0  9990
2 41615  97.4394  60.4821 0012140 129.8815 230.3492 15.23584787 83732
